OBJECT_NAME,OBJECT_ID,EPOCH,MEAN_MOTION,ECCENTRICITY,INCLINATION,RA_OF_ASC_NODE,ARG_OF_PERICENTER,MEAN_ANOMALY,EPHEMERIS_TYPE,CLASSIFICATION_TYPE,NORAD_CAT_ID,ELEMENT_SET_NO,REV_AT_EPOCH,BSTAR,MEAN_MOTION_DOT,MEAN_MOTION_DDOT
FENGYUN 1C DEB,1999-025BLJ,2026-06-12T18:26:51.638208,14.37526206,.0076249,98.8699,86.2093,269.7101,145.8417,0,U,31228,999,181,.34035E-3,.1006E-4,0
FENGYUN 1C DEB,1999-025BLK,2026-06-10T11:15:34.209216,14.22967764,.00555001,98.8568,242.7354,141.6752,218.8389,0,U,31229,999,98639,.10329331E-2,.2318E-4,0
FENGYUN 1C DEB,1999-025BLM,2026-06-12T05:37:26.222592,14.84436803,.012456,98.8682,346.2791,252.4382,106.3190,0,U,31231,999,65706,.19982039E-2,.19281E-3,0
FENGYUN 1C DEB,1999-025BLQ,2026-06-03T05:06:01.339200,14.08186389,.00751394,98.7935,148.7615,100.9322,260.0313,0,U,31234,999,75147,.29480199E-3,.474E-5,0
FENGYUN 1C DEB,1999-025BLR,2026-06-09T16:26:34.279008,14.22276141,.01649837,98.4542,306.5852,219.6771,139.2243,0,U,31235,999,65708,.17699585E-2,.4476E-4,0
FENGYUN 1C DEB,1999-025BLS,2026-06-12T02:26:20.855328,13.88317149,.03023428,98.5439,108.1704,269.5032,87.1482,0,U,31236,999,63539,.16147829E-2,.2742E-4,0
FENGYUN 1C DEB,1999-025BLT,2026-06-12T05:28:42.132288,14.31908877,.00884904,98.4583,162.4711,170.3211,189.9703,0,U,31237,999,99863,.33782098E-3,.902E-5,0
FENGYUN 1C DEB,1999-025BLV,2026-06-10T22:40:30.154944,14.10104075,.00507931,98.7665,157.2396,50.1207,4.3985,0,U,31239,999,98551,.26992799E-3,.44E-5,0
FENGYUN 1C DEB,1999-025BLW,2026-06-10T07:08:19.381056,14.09806928,.0044159,98.7506,165.7951,227.2716,147.0942,0,U,31240,999,24627,.46351E-3,.779E-5,0
FENGYUN 1C DEB,1999-025BLX,2026-06-07T17:09:06.336288,14.39297233,.00662007,99.2565,324.2201,25.2778,335.1622,0,U,31241,999,214,.43066567E-3,.1321E-4,0
FENGYUN 1C DEB,1999-025BLZ,2026-06-09T20:32:02.534496,14.07612192,.00653588,98.7298,200.2873,25.2559,335.1782,0,U,31243,999,71827,.50784288E-3,.832E-5,0
FENGYUN 1C DEB,1999-025BMA,2026-06-10T21:43:13.202688,14.06504466,.01016938,99.0101,229.9181,33.3510,327.4010,0,U,31244,999,60172,.38247224E-3,.619E-5,0
FENGYUN 1C DEB,1999-025BMC,2026-05-14T08:58:10.817184,14.08357057,.01433343,98.8074,342.7965,274.5659,83.9151,0,U,31246,999,63900,.1033438E-2,.1899E-4,0
FENGYUN 1C DEB,1999-025BMD,2026-06-11T16:52:34.263840,14.05494805,.00570939,99.3535,61.6577,288.1475,129.8361,0,U,31247,999,98063,.39878505E-3,.609E-5,0
FENGYUN 1C DEB,1999-025BME,2026-06-08T10:49:44.802336,13.93059853,.01108873,99.2417,221.8122,189.1247,186.1314,0,U,31248,999,97298,.62369166E-3,.808E-5,0
FENGYUN 1C DEB,1999-025BMG,2026-06-11T07:02:15.635328,14.03675146,.0133088,98.3781,3.3482,145.8495,215.1324,0,U,31250,999,98050,.70234E-3,.1156E-4,0
FENGYUN 1C DEB,1999-025BMJ,2026-06-10T19:17:36.164256,14.40808563,.02114262,98.3031,180.6622,349.8859,9.8107,0,U,31252,999,99799,.32613201E-3,.1309E-4,0
FENGYUN 1C DEB,1999-025BMK,2026-06-10T10:24:39.875040,14.03818215,.02882371,99.0527,231.1595,311.5263,46.1497,0,U,31253,999,71519,.83154384E-4,.139E-5,0
FENGYUN 1C DEB,1999-025BML,2026-06-12T02:27:18.403776,14.36895756,.01506573,98.4357,214.4622,21.8715,42.3932,0,U,31254,999,1,.29291588E-3,.94E-5,0
FENGYUN 1C DEB,1999-025BMM,2026-06-12T06:31:45.375744,14.10081029,.02694844,99.3153,351.9367,197.4610,161.7155,0,U,31255,999,99359,.26589678E-3,.607E-5,0
FENGYUN 1C DEB,1999-025BMN,2026-06-11T06:43:36.814080,14.05749420,.0301871,98.6674,7.3041,326.1496,32.0721,0,U,31256,999,67516,.15878E-2,.3864E-4,0
FENGYUN 1C DEB,1999-025BMR,2026-06-12T05:05:56.854176,14.16142271,.00630214,99.0014,249.2206,44.2395,11.2290,0,U,31259,999,98137,.1171714E-2,.2317E-4,0
FENGYUN 1C DEB,1999-025BMS,2026-06-09T17:07:31.800000,14.37377115,.00475406,98.9485,69.8050,123.0555,293.6039,0,U,31260,999,99764,.6186665E-3,.1825E-4,0
FENGYUN 1C DEB,1999-025BMT,2026-06-11T04:17:30.143904,14.41218573,.00519375,99.0318,130.4515,60.7417,299.8948,0,U,31261,999,99948,.66417773E-3,.213E-4,0
FENGYUN 1C DEB,1999-025BMU,2026-06-11T05:09:46.813824,14.19363498,.0052096,98.9951,253.3073,302.0940,112.8970,0,U,31262,999,98268,.97032E-3,.2021E-4,0
FENGYUN 1C DEB,1999-025BMW,2026-06-11T23:47:00.596832,14.19003852,.00017078,99.1051,69.8922,74.2744,303.9159,0,U,31264,999,98999,.37787654E-3,.742E-5,0
FENGYUN 1C DEB,1999-025BMY,2026-06-11T19:42:05.255424,14.22579474,.01308865,99.2697,160.1326,128.5465,353.0112,0,U,31266,999,99780,.18970224E-3,.415E-5,0
FENGYUN 1C DEB,1999-025BNA,2026-06-07T08:02:10.143168,14.06811373,.004981,98.7341,199.6701,48.7574,311.7871,0,U,31268,999,64515,.72464257E-3,.1177E-4,0
FENGYUN 1C DEB,1999-025BNB,2026-06-11T15:07:02.888256,14.46165877,.02348552,98.1642,39.1073,83.2481,332.3374,0,U,31269,999,99099,.13356593E-2,.6688E-4,0
FENGYUN 1C DEB,1999-025BNE,2026-06-09T22:36:54.016704,14.23354063,.01053903,99.0728,43.4260,320.7080,38.6483,0,U,31272,999,99538,.34272794E-3,.775E-5,0
