FENGYUN 1C DEB          
1 31228U 99025BLJ 26163.76865322  .00001006  00000+0  34035-3 0  9992
2 31228  98.8699  86.2093 0076249 269.7101 145.8417 14.37526206  1815
FENGYUN 1C DEB          
1 31229U 99025BLK 26161.46914594  .00002318  00000+0  10329-2 0  9990
2 31229  98.8568 242.7354 0055500 141.6752 218.8389 14.22967764986393
FENGYUN 1C DEB          
1 31231U 99025BLM 26163.23433128  .00019281  00000+0  19982-2 0  9990
2 31231  98.8682 346.2791 0124560 252.4382 106.3190 14.84436803657064
FENGYUN 1C DEB          
1 31234U 99025BLQ 26154.21251550  .00000474  00000+0  29480-3 0  9997
2 31234  98.7935 148.7615 0075139 100.9322 260.0313 14.08186389751477
FENGYUN 1C DEB          
1 31235U 99025BLR 26160.68511897  .00004476  00000+0  17700-2 0  9996
2 31235  98.4542 306.5852 0164983 219.6771 139.2243 14.22276141657081
FENGYUN 1C DEB          
1 31236U 99025BLS 26163.10163027  .00002742  00000+0  16148-2 0  9994
2 31236  98.5439 108.1704 0302342 269.5032  87.1482 13.88317149635398
FENGYUN 1C DEB          
1 31237U 99025BLT 26163.22826542  .00000902  00000+0  33782-3 0  9996
2 31237  98.4583 162.4711 0088490 170.3211 189.9703 14.31908877998631
FENGYUN 1C DEB          
1 31239U 99025BLV 26161.94479346  .00000440  00000+0  26993-3 0  9994
2 31239  98.7665 157.2396 0050793  50.1207   4.3985 14.10104075985513
FENGYUN 1C DEB          
1 31240U 99025BLW 26161.29744654  .00000779  00000+0  46351-3 0  9996
2 31240  98.7506 165.7951 0044159 227.2716 147.0942 14.09806928246276
FENGYUN 1C DEB          
1 31241U 99025BLX 26158.71465667  .00001321  00000+0  43067-3 0  9999
2 31241  99.2565 324.2201 0066200  25.2778 335.1622 14.39297233  2140
FENGYUN 1C DEB          
1 31243U 99025BLZ 26160.85558489  .00000832  00000+0  50784-3 0  9994
2 31243  98.7298 200.2873 0065358  25.2559 335.1782 14.07612192718272
FENGYUN 1C DEB          
1 31244U 99025BMA 26161.90501392  .00000619  00000+0  38247-3 0  9996
2 31244  99.0101 229.9181 0101693  33.3510 327.4010 14.06504466601722
FENGYUN 1C DEB          
1 31246U 99025BMC 26134.37373631  .00001899  00000+0  10334-2 0  9999
2 31246  98.8074 342.7965 0143334 274.5659  83.9151 14.08357057639001
FENGYUN 1C DEB          
1 31247U 99025BMD 26162.70317435  .00000609  00000+0  39879-3 0  9992
2 31247  99.3535  61.6577 0057093 288.1475 129.8361 14.05494805980630
FENGYUN 1C DEB          
1 31248U 99025BME 26159.45121299  .00000808  00000+0  62369-3 0  9993
2 31248  99.2417 221.8122 0110887 189.1247 186.1314 13.93059853972982
FENGYUN 1C DEB          
1 31250U 99025BMG 26162.29323652  .00001156  00000+0  70234-3 0  9996
2 31250  98.3781   3.3482 0133088 145.8495 215.1324 14.03675146980505
FENGYUN 1C DEB          
1 31252U 99025BMJ 26161.80389079  .00001309  00000+0  32613-3 0  9998
2 31252  98.3031 180.6622 0211426 349.8859   9.8107 14.40808563997993
FENGYUN 1C DEB          
1 31253U 99025BMK 26161.43379485  .00000139  00000+0  83154-4 0  9995
2 31253  99.0527 231.1595 0288237 311.5263  46.1497 14.03818215715192
FENGYUN 1C DEB          
1 31254U 99025BML 26163.10229634  .00000940  00000+0  29292-3 0  9994
2 31254  98.4357 214.4622 0150657  21.8715  42.3932 14.36895756    10
FENGYUN 1C DEB          
1 31255U 99025BMM 26163.27205296  .00000607  00000+0  26590-3 0  9999
2 31255  99.3153 351.9367 0269484 197.4610 161.7155 14.10081029993590
FENGYUN 1C DEB          
1 31256U 99025BMN 26162.28028720  .00003864  00000+0  15878-2 0  9999
2 31256  98.6674   7.3041 0301871 326.1496  32.0721 14.05749420675161
FENGYUN 1C DEB          
1 31259U 99025BMR 26163.21246359  .00002317  00000+0  11717-2 0  9996
2 31259  99.0014 249.2206 0063021  44.2395  11.2290 14.16142271981371
FENGYUN 1C DEB          
1 31260U 99025BMS 26160.71356250  .00001825  00000+0  61867-3 0  9997
2 31260  98.9485  69.8050 0047540 123.0555 293.6039 14.37377115997642
FENGYUN 1C DEB          
1 31261U 99025BMT 26162.17882111  .00002130  00000+0  66418-3 0  9997
2 31261  99.0318 130.4515 0051937  60.7417 299.8948 14.41218573999488
FENGYUN 1C DEB          
1 31262U 99025BMU 26162.21512516  .00002021  00000+0  97032-3 0  9997
2 31262  98.9951 253.3073 0052096 302.0940 112.8970 14.19363498982689
FENGYUN 1C DEB          
1 31264U 99025BMW 26162.99097913  .00000742  00000+0  37788-3 0  9993
2 31264  99.1051  69.8922 0001707  74.2744 303.9159 14.19003852989999
FENGYUN 1C DEB          
1 31266U 99025BMY 26162.82089416  .00000415  00000+0  18970-3 0  9995
2 31266  99.2697 160.1326 0130886 128.5465 353.0112 14.22579474997801
FENGYUN 1C DEB          
1 31268U 99025BNA 26158.33483962  .00001177  00000+0  72464-3 0  9996
2 31268  98.7341 199.6701 0049810  48.7574 311.7871 14.06811373645157
FENGYUN 1C DEB          
1 31269U 99025BNB 26162.62989454  .00006688  00000+0  13357-2 0  9998
2 31269  98.1642  39.1073 0234855  83.2481 332.3374 14.46165877990999
FENGYUN 1C DEB          
1 31272U 99025BNE 26160.94229186  .00000775  00000+0  34273-3 0  9996
2 31272  99.0728  43.4260 0105390 320.7080  38.6483 14.23354063995386
